[
  {
    "OBJECT_NAME": "STARLINK-5523",
    "OBJECT_ID": "2023-064Y",
    "EPOCH": "2025-05-31T14:46:35.847552",
    "MEAN_MOTION": 14.98301126,
    "ECCENTRICITY": 0.0002552,
    "INCLINATION": 69.9994,
    "RA_OF_ASC_NODE": 115.8155,
    "ARG_OF_PERICENTER": 263.8105,
    "MEAN_ANOMALY": 96.2764,
    "EPHEMERIS_TYPE": 0,
    "CLASSIFICATION_TYPE": "U",
    "NORAD_CAT_ID": 56470,
    "ELEMENT_SET_NO": 999,
    "REV_AT_EPOCH": 11384,
    "BSTAR": -0.00034386,
    "MEAN_MOTION_DOT": -4.19e-05,
    "MEAN_MOTION_DDOT": 0
  },
  {
    "OBJECT_NAME": "STARLINK-5521",
    "OBJECT_ID": "2023-064Z",
    "EPOCH": "2025-05-31T14:34:31.600416",
    "MEAN_MOTION": 14.98329755,
    "ECCENTRICITY": 0.0003448,
    "INCLINATION": 69.9991,
    "RA_OF_ASC_NODE": 115.7849,
    "ARG_OF_PERICENTER": 267.7523,
    "MEAN_ANOMALY": 92.3241,
    "EPHEMERIS_TYPE": 0,
    "CLASSIFICATION_TYPE": "U",
    "NORAD_CAT_ID": 56471,
    "ELEMENT_SET_NO": 999,
    "REV_AT_EPOCH": 11348,
    "BSTAR": 2.197e-05,
    "MEAN_MOTION_DOT": 1.69e-06,
    "MEAN_MOTION_DDOT": 0
  },
  {
    "OBJECT_NAME": "STARLINK-5038",
    "OBJECT_ID": "2023-064AA",
    "EPOCH": "2025-05-31T14:22:30.464544",
    "MEAN_MOTION": 14.98329372,
    "ECCENTRICITY": 0.0002845,
    "INCLINATION": 69.999,
    "RA_OF_ASC_NODE": 115.7565,
    "ARG_OF_PERICENTER": 270.3193,
    "MEAN_ANOMALY": 89.764,
    "EPHEMERIS_TYPE": 0,
    "CLASSIFICATION_TYPE": "U",
    "NORAD_CAT_ID": 56472,
    "ELEMENT_SET_NO": 999,
    "REV_AT_EPOCH": 11348,
    "BSTAR": 2.2575e-05,
    "MEAN_MOTION_DOT": 1.76e-06,
    "MEAN_MOTION_DDOT": 0
  },
  {
    "OBJECT_NAME": "STARLINK-5524",
    "OBJECT_ID": "2023-064AC",
    "EPOCH": "2025-05-31T08:28:01.455168",
    "MEAN_MOTION": 14.98328634,
    "ECCENTRICITY": 0.0003125,
    "INCLINATION": 69.9993,
    "RA_OF_ASC_NODE": 116.5035,
    "ARG_OF_PERICENTER": 269.1777,
    "MEAN_ANOMALY": 90.9024,
    "EPHEMERIS_TYPE": 0,
    "CLASSIFICATION_TYPE": "U",
    "NORAD_CAT_ID": 56474,
    "ELEMENT_SET_NO": 999,
    "REV_AT_EPOCH": 11344,
    "BSTAR": -2.0822e-06,
    "MEAN_MOTION_DOT": -1.18e-06,
    "MEAN_MOTION_DDOT": 0
  },
  {
    "OBJECT_NAME": "STARLINK-5541",
    "OBJECT_ID": "2023-064AD",
    "EPOCH": "2025-05-31T07:51:58.815648",
    "MEAN_MOTION": 14.98332007,
    "ECCENTRICITY": 0.0002958,
    "INCLINATION": 69.9988,
    "RA_OF_ASC_NODE": 116.4115,
    "ARG_OF_PERICENTER": 272.0445,
    "MEAN_ANOMALY": 88.0375,
    "EPHEMERIS_TYPE": 0,
    "CLASSIFICATION_TYPE": "U",
    "NORAD_CAT_ID": 56475,
    "ELEMENT_SET_NO": 999,
    "REV_AT_EPOCH": 11344,
    "BSTAR": 7.5377e-05,
    "MEAN_MOTION_DOT": 8.07e-06,
    "MEAN_MOTION_DDOT": 0
  },
  {
    "OBJECT_NAME": "STARLINK-5545",
    "OBJECT_ID": "2023-064AE",
    "EPOCH": "2025-05-31T14:28:32.048544",
    "MEAN_MOTION": 14.98327561,
    "ECCENTRICITY": 0.0003104,
    "INCLINATION": 69.9987,
    "RA_OF_ASC_NODE": 115.7695,
    "ARG_OF_PERICENTER": 270.7138,
    "MEAN_ANOMALY": 89.3666,
    "EPHEMERIS_TYPE": 0,
    "CLASSIFICATION_TYPE": "U",
    "NORAD_CAT_ID": 56476,
    "ELEMENT_SET_NO": 999,
    "REV_AT_EPOCH": 11348,
    "BSTAR": 3.6661e-05,
    "MEAN_MOTION_DOT": 3.44e-06,
    "MEAN_MOTION_DDOT": 0
  },
  {
    "OBJECT_NAME": "STARLINK-5534",
    "OBJECT_ID": "2023-064AF",
    "EPOCH": "2025-05-31T07:28:09.469344",
    "MEAN_MOTION": 14.9832522,
    "ECCENTRICITY": 0.0002997,
    "INCLINATION": 69.9992,
    "RA_OF_ASC_NODE": 116.3567,
    "ARG_OF_PERICENTER": 268.708,
    "MEAN_ANOMALY": 91.3735,
    "EPHEMERIS_TYPE": 0,
    "CLASSIFICATION_TYPE": "U",
    "NORAD_CAT_ID": 56477,
    "ELEMENT_SET_NO": 999,
    "REV_AT_EPOCH": 11344,
    "BSTAR": 4.97e-06,
    "MEAN_MOTION_DOT": -3.4e-07,
    "MEAN_MOTION_DDOT": 0
  },
  {
    "OBJECT_NAME": "STARLINK-6041",
    "OBJECT_ID": "2023-064AG",
    "EPOCH": "2025-05-31T07:45:56.771136",
    "MEAN_MOTION": 14.98328949,
    "ECCENTRICITY": 0.0003518,
    "INCLINATION": 69.999,
    "RA_OF_ASC_NODE": 116.3996,
    "ARG_OF_PERICENTER": 265.6289,
    "MEAN_ANOMALY": 94.4468,
    "EPHEMERIS_TYPE": 0,
    "CLASSIFICATION_TYPE": "U",
    "NORAD_CAT_ID": 56478,
    "ELEMENT_SET_NO": 999,
    "REV_AT_EPOCH": 11344,
    "BSTAR": 7.4639e-05,
    "MEAN_MOTION_DOT": 7.98e-06,
    "MEAN_MOTION_DDOT": 0
  },
  {
    "OBJECT_NAME": "STARLINK-6044",
    "OBJECT_ID": "2023-064AH",
    "EPOCH": "2025-05-31T07:09:53.455104",
    "MEAN_MOTION": 14.98337038,
    "ECCENTRICITY": 0.0002828,
    "INCLINATION": 69.999,
    "RA_OF_ASC_NODE": 116.3109,
    "ARG_OF_PERICENTER": 261.6904,
    "MEAN_ANOMALY": 98.3935,
    "EPHEMERIS_TYPE": 0,
    "CLASSIFICATION_TYPE": "U",
    "NORAD_CAT_ID": 56479,
    "ELEMENT_SET_NO": 999,
    "REV_AT_EPOCH": 11344,
    "BSTAR": -3.633e-05,
    "MEAN_MOTION_DOT": -5.27e-06,
    "MEAN_MOTION_DDOT": 0
  },
  {
    "OBJECT_NAME": "STARLINK-6214",
    "OBJECT_ID": "2023-064AJ",
    "EPOCH": "2025-05-31T13:47:24.910368",
    "MEAN_MOTION": 15.12611596,
    "ECCENTRICITY": 0.0004162,
    "INCLINATION": 69.9971,
    "RA_OF_ASC_NODE": 104.1444,
    "ARG_OF_PERICENTER": 248.4524,
    "MEAN_ANOMALY": 111.6199,
    "EPHEMERIS_TYPE": 0,
    "CLASSIFICATION_TYPE": "U",
    "NORAD_CAT_ID": 56480,
    "ELEMENT_SET_NO": 999,
    "REV_AT_EPOCH": 11377,
    "BSTAR": 0.00048431,
    "MEAN_MOTION_DOT": 8.381e-05,
    "MEAN_MOTION_DDOT": 0
  },
  {
    "OBJECT_NAME": "STARLINK-6222",
    "OBJECT_ID": "2023-064AK",
    "EPOCH": "2025-05-31T15:22:34.739040",
    "MEAN_MOTION": 14.9832867,
    "ECCENTRICITY": 0.0002961,
    "INCLINATION": 69.9991,
    "RA_OF_ASC_NODE": 115.499,
    "ARG_OF_PERICENTER": 268.9333,
    "MEAN_ANOMALY": 91.1486,
    "EPHEMERIS_TYPE": 0,
    "CLASSIFICATION_TYPE": "U",
    "NORAD_CAT_ID": 56481,
    "ELEMENT_SET_NO": 999,
    "REV_AT_EPOCH": 11385,
    "BSTAR": 3.2008e-05,
    "MEAN_MOTION_DOT": 2.89e-06,
    "MEAN_MOTION_DDOT": 0
  },
  {
    "OBJECT_NAME": "STARLINK-6220",
    "OBJECT_ID": "2023-064AL",
    "EPOCH": "2025-05-31T07:39:56.193696",
    "MEAN_MOTION": 14.98329959,
    "ECCENTRICITY": 0.0002962,
    "INCLINATION": 69.9988,
    "RA_OF_ASC_NODE": 116.3844,
    "ARG_OF_PERICENTER": 266.8029,
    "MEAN_ANOMALY": 93.2791,
    "EPHEMERIS_TYPE": 0,
    "CLASSIFICATION_TYPE": "U",
    "NORAD_CAT_ID": 56482,
    "ELEMENT_SET_NO": 999,
    "REV_AT_EPOCH": 11344,
    "BSTAR": 4.6126e-05,
    "MEAN_MOTION_DOT": 4.57e-06,
    "MEAN_MOTION_DDOT": 0
  },
  {
    "OBJECT_NAME": "STARLINK-5868",
    "OBJECT_ID": "2023-064AM",
    "EPOCH": "2025-05-31T07:33:57.236256",
    "MEAN_MOTION": 14.98315974,
    "ECCENTRICITY": 0.0003626,
    "INCLINATION": 69.9988,
    "RA_OF_ASC_NODE": 116.3663,
    "ARG_OF_PERICENTER": 271.5531,
    "MEAN_ANOMALY": 88.5213,
    "EPHEMERIS_TYPE": 0,
    "CLASSIFICATION_TYPE": "U",
    "NORAD_CAT_ID": 56483,
    "ELEMENT_SET_NO": 999,
    "REV_AT_EPOCH": 11344,
    "BSTAR": 8.4573e-05,
    "MEAN_MOTION_DOT": 9.16e-06,
    "MEAN_MOTION_DDOT": 0
  },
  {
    "OBJECT_NAME": "STARLINK-6221",
    "OBJECT_ID": "2023-064AN",
    "EPOCH": "2025-05-31T07:27:54.885888",
    "MEAN_MOTION": 14.98327025,
    "ECCENTRICITY": 0.0002913,
    "INCLINATION": 69.9989,
    "RA_OF_ASC_NODE": 116.3549,
    "ARG_OF_PERICENTER": 269.6874,
    "MEAN_ANOMALY": 90.3951,
    "EPHEMERIS_TYPE": 0,
    "CLASSIFICATION_TYPE": "U",
    "NORAD_CAT_ID": 56484,
    "ELEMENT_SET_NO": 999,
    "REV_AT_EPOCH": 11344,
    "BSTAR": 7.7829e-05,
    "MEAN_MOTION_DOT": 8.36e-06,
    "MEAN_MOTION_DDOT": 0
  },
  {
    "OBJECT_NAME": "STARLINK-6210",
    "OBJECT_ID": "2023-064AP",
    "EPOCH": "2025-05-31T15:04:32.784672",
    "MEAN_MOTION": 14.98330349,
    "ECCENTRICITY": 0.0002388,
    "INCLINATION": 69.9988,
    "RA_OF_ASC_NODE": 115.4529,
    "ARG_OF_PERICENTER": 269.4756,
    "MEAN_ANOMALY": 90.613,
    "EPHEMERIS_TYPE": 0,
    "CLASSIFICATION_TYPE": "U",
    "NORAD_CAT_ID": 56485,
    "ELEMENT_SET_NO": 999,
    "REV_AT_EPOCH": 11385,
    "BSTAR": 3.9096e-05,
    "MEAN_MOTION_DOT": 3.74e-06,
    "MEAN_MOTION_DDOT": 0
  },
  {
    "OBJECT_NAME": "STARLINK-6201",
    "OBJECT_ID": "2023-064AQ",
    "EPOCH": "2025-05-31T07:15:53.710272",
    "MEAN_MOTION": 14.9832795,
    "ECCENTRICITY": 0.0003179,
    "INCLINATION": 69.9989,
    "RA_OF_ASC_NODE": 116.3258,
    "ARG_OF_PERICENTER": 271.7901,
    "MEAN_ANOMALY": 88.2894,
    "EPHEMERIS_TYPE": 0,
    "CLASSIFICATION_TYPE": "U",
    "NORAD_CAT_ID": 56486,
    "ELEMENT_SET_NO": 999,
    "REV_AT_EPOCH": 11344,
    "BSTAR": -9.3318e-06,
    "MEAN_MOTION_DOT": -2.04e-06,
    "MEAN_MOTION_DDOT": 0
  },
  {
    "OBJECT_NAME": "STARLINK-6196",
    "OBJECT_ID": "2023-064AR",
    "EPOCH": "2025-05-31T21:04:43.003200",
    "MEAN_MOTION": 14.98332472,
    "ECCENTRICITY": 0.0002847,
    "INCLINATION": 69.9994,
    "RA_OF_ASC_NODE": 94.8561,
    "ARG_OF_PERICENTER": 270.6971,
    "MEAN_ANOMALY": 89.3862,
    "EPHEMERIS_TYPE": 0,
    "CLASSIFICATION_TYPE": "U",
    "NORAD_CAT_ID": 56487,
    "ELEMENT_SET_NO": 999,
    "REV_AT_EPOCH": 11438,
    "BSTAR": -2.3395e-06,
    "MEAN_MOTION_DOT": -1.21e-06,
    "MEAN_MOTION_DDOT": 0
  },
  {
    "OBJECT_NAME": "STARLINK-6204",
    "OBJECT_ID": "2023-064AS",
    "EPOCH": "2025-05-31T14:04:09.204960",
    "MEAN_MOTION": 14.98331742,
    "ECCENTRICITY": 0.0003164,
    "INCLINATION": 70,
    "RA_OF_ASC_NODE": 95.8453,
    "ARG_OF_PERICENTER": 277.7583,
    "MEAN_ANOMALY": 82.3217,
    "EPHEMERIS_TYPE": 0,
    "CLASSIFICATION_TYPE": "U",
    "NORAD_CAT_ID": 56488,
    "ELEMENT_SET_NO": 999,
    "REV_AT_EPOCH": 11397,
    "BSTAR": -7.4906e-05,
    "MEAN_MOTION_DOT": -9.87e-06,
    "MEAN_MOTION_DDOT": 0
  }
]